[{"OBJECT_NAME":"STARLINK-35729","OBJECT_ID":"2025-280S","EPOCH":"2026-03-09T23:21:34.879968","MEAN_MOTION":14.98329385,"ECCENTRICITY":0.00029279,"INCLINATION":70.0029,"RA_OF_ASC_NODE":333.9285,"ARG_OF_PERICENTER":271.5719,"MEAN_ANOMALY":88.5104,"EPHEMERIS_TYPE":0,"CLASSIFICATION_TYPE":"U","NORAD_CAT_ID":66837,"ELEMENT_SET_NO":999,"REV_AT_EPOCH":1611,"BSTAR":0.0014761065,"MEAN_MOTION_DOT":0.00017564,"MEAN_MOTION_DDOT":0},{"OBJECT_NAME":"CZ-4C R\/B","OBJECT_ID":"2022-035B","EPOCH":"2026-03-09T17:12:26.005824","MEAN_MOTION":14.7427579,"ECCENTRICITY":0.01045469,"INCLINATION":98.2415,"RA_OF_ASC_NODE":134.9721,"ARG_OF_PERICENTER":190.6082,"MEAN_ANOMALY":169.2921,"EPHEMERIS_TYPE":0,"CLASSIFICATION_TYPE":"U","NORAD_CAT_ID":52201,"ELEMENT_SET_NO":999,"REV_AT_EPOCH":21079,"BSTAR":0.0001664192,"MEAN_MOTION_DOT":1.142e-5,"MEAN_MOTION_DDOT":0}]
